NORAD_CAT_ID,OBJECT_NAME,OBJECT_TYPE,EPOCH,MEAN_MOTION,ECCENTRICITY,INCLINATION,RA_OF_ASC_NODE,ARG_OF_PERICENTER,MEAN_ANOMALY,BSTAR,MEAN_MOTION_DOT,MEAN_MOTION_DDOT,TLE_LINE0,TLE_LINE1,TLE_LINE2,SEMIMAJOR_AXIS,PERIOD,APOGEE,PERIGEE,DECAYED
49143.0,STARLINK-3109,PAYLOAD,2021-11-01 22:00:00,15.69725355,0.0003783,70.0012,349.7302,292.0919,320.2108,0.00024328,0.00028903,0.0,0 STARLINK-3109,1 49143U 21082P   21305.91667824  .00028903  00000-0  24328-3 0  9992,2 49143  70.0012 349.7302 0003783 292.0919 320.2108 15.69725355  3674,6737.82,91.736,362.234,357.136,0.0
49143.0,STARLINK-3109,PAYLOAD,2021-11-02 14:00:01,15.69685166,0.0003721,70.0012,347.8563,297.9034,120.5608,0.00048646,0.00058112,0.0,0 STARLINK-3109,1 49143U 21082P   21306.58334491  .00058112  00000-0  48646-3 0  9991,2 49143  70.0012 347.8563 0003721 297.9034 120.5608 15.69685166  3699,6737.935,91.738,362.307,357.293,0.0
49143.0,STARLINK-3109,PAYLOAD,2021-11-02 22:00:00,15.69690792,0.0003567,70.001,346.9196,292.7666,208.7914,0.00070045,0.00084046,0.0,0 STARLINK-3109,1 49143U 21082P   21306.91667824  .00084046  00000-0  70045-3 0  9990,2 49143  70.0010 346.9196 0003567 292.7666 208.7914 15.69690792  7910,6737.919,91.738,362.187,357.38,0.0
49143.0,STARLINK-3109,PAYLOAD,2021-11-03 14:00:01,15.69747687,0.0003795,70.0003,345.0459,298.0564,9.7263,0.00045985,0.00055045,0.0,0 STARLINK-3109,1 49143U 21082P   21307.58334491  .00055045  00000-0  45985-3 0  9997,2 49143  70.0003 345.0459 0003795 298.0564   9.7263 15.69747687  8028,6737.755999999999,91.734,362.17800000000005,357.064,0.0
49143.0,STARLINK-3109,PAYLOAD,2021-11-03 20:00:01,15.69779266,0.0003689,70.0002,344.343,294.3458,345.8562,-0.00016901,-0.00020366,0.0,0 STARLINK-3109,1 49143U 21082P   21307.83335648 -.00020366  00000-0 -16901-3 0  9996,2 49143  70.0002 344.3430 0003689 294.3458 345.8562 15.69779266  8069,6737.666,91.733,362.016,357.045,0.0
49143.0,STARLINK-3109,PAYLOAD,2021-11-03 22:00:00,15.69759123,0.00037,70.0003,344.1087,292.0109,98.9218,0.00013733,0.00016221,0.0,0 STARLINK-3109,1 49143U 21082P   21307.91667824  .00016221  00000-0  13733-3 0  9992,2 49143  70.0003 344.1087 0003700 292.0109  98.9218 15.69759123  3685,6737.723000000001,91.734,362.081,357.095,0.0
49143.0,STARLINK-3109,PAYLOAD,2021-11-04 14:00:01,15.69759596,0.0003979,70.0001,342.2345,295.8828,261.3524,0.00046058,0.00055162,0.0,0 STARLINK-3109,1 49143U 21082P   21308.58334491  .00055162  00000-0  46058-3 0  9990,2 49143  70.0001 342.2345 0003979 295.8828 261.3524 15.69759596  3675,6737.722,91.734,362.268,356.906,0.0
49143.0,STARLINK-3109,PAYLOAD,2021-11-04 22:00:00,15.69797323,0.0003755,70.0001,341.2977,291.8792,348.5833,0.0011167,0.00135547,0.0,0 STARLINK-3109,1 49143U 21082P   21308.91667824  .00135547  00000-0  11167-2 0  9994,2 49143  70.0001 341.2977 0003755 291.8792 348.5833 15.69797323  8231,6737.614000000001,91.732,362.009,356.949,0.0
49143.0,STARLINK-3109,PAYLOAD,2021-11-05 06:00:00,15.69942383,0.0003846,70.0,340.3606,292.4449,71.2496,-0.0011174,-0.0013259,0.0,0 STARLINK-3109,1 49143U 21082P   21309.25001157 -.00132590  00000-0 -11174-2 0  9998,2 49143  70.0000 340.3606 0003846 292.4449  71.2496 15.69942383  8284,6737.199000000001,91.723,361.655,356.473,0.0
49143.0,STARLINK-3109,PAYLOAD,2021-11-05 14:00:01,15.69810691,0.0004075,69.9993,339.4232,295.6068,151.3308,-0.0013513,-0.00158945,0.0,0 STARLINK-3109,1 49143U 21082P   21309.58334491 -.00158945  00000-0 -13513-2 0  9995,2 49143  69.9993 339.4232 0004075 295.6068 151.3308 15.69810691  8337,6737.576,91.731,362.186,356.695,0.0
49143.0,STARLINK-3109,PAYLOAD,2021-11-05 22:00:00,15.69677459,0.0003903,69.9994,338.4857,290.781,239.3024,-0.0016905,-0.00196807,0.0,0 STARLINK-3109,1 49143U 21082P   21309.91667824 -.00196807  00000-0 -16905-2 0  9998,2 49143  69.9994 338.4857 0003903 290.7810 239.3024 15.69677459  3723,6737.956999999999,91.739,362.452,357.19199999999995,0.0
49143.0,STARLINK-3109,PAYLOAD,2021-11-06 04:00:01,15.69498499,0.0003758,69.9997,337.7832,291.4445,210.915,0.00024821,0.00029218,0.0,0 STARLINK-3109,1 49143U 21082P   21310.16668981  .00029218  00000-0  24821-3 0  9998,2 49143  69.9997 337.7832 0003758 291.4445 210.9150 15.69498499  8423,6738.469,91.749,362.866,357.802,0.0
49143.0,STARLINK-3109,PAYLOAD,2021-11-06 08:00:03,15.69449331,0.0003808,69.9996,337.3148,294.1381,69.7144,0.0017582,0.00212448,0.0,0 STARLINK-3109,1 49143U 21082P   21310.33336806  .00212448  00000-0  17582-2 0  9999,2 49143  69.9996 337.3148 0003808 294.1381  69.7144 15.69449331  3703,6738.61,91.752,363.041,357.909,0.0
49143.0,STARLINK-3109,PAYLOAD,2021-11-06 14:00:01,15.69572527,0.0003979,69.9994,336.6119,296.6964,39.2269,0.0017271,0.00209684,0.0,0 STARLINK-3109,1 49143U 21082P   21310.58335648  .00209684  00000-0  17271-2 0  9992,2 49143  69.9994 336.6119 0003979 296.6964  39.2269 15.69572527  8499,6738.257,91.745,362.80300000000005,357.441,0.0
49143.0,STARLINK-3109,PAYLOAD,2021-11-06 16:00:00,15.69639397,0.0003871,69.9993,336.3778,295.9854,150.5923,0.0009224,0.00110872,0.0,0 STARLINK-3109,1 49143U 21082P   21310.66667824  .00110872  00000-0  92240-3 0  9995,2 49143  69.9993 336.3778 0003871 295.9854 150.5923 15.69639397  3664,6738.066,91.741,362.539,357.32199999999995,0.0
49143.0,STARLINK-3109,PAYLOAD,2021-11-06 20:00:01,15.69684751,0.0003743,69.9995,335.9096,293.2244,14.9279,0.0006457,0.00077382,0.0,0 STARLINK-3109,1 49143U 21082P   21310.83335648  .00077382  00000-0  64570-3 0  9993,2 49143  69.9995 335.9096 0003743 293.2244  14.9279 15.69684751  8538,6737.936,91.738,362.323,357.279,0.0
49143.0,STARLINK-3109,PAYLOAD,2021-11-07 14:00:01,15.69770021,0.0003919,69.999,333.8013,296.1576,288.9379,0.00018919,0.00022454,0.0,0 STARLINK-3109,1 49143U 21082P   21311.58334491  .00022454  00000-0  18919-3 0  9997,2 49143  69.9990 333.8013 0003919 296.1576 288.9379 15.69770021  8657,6737.691999999999,91.733,362.198,356.916,0.0
49143.0,STARLINK-3109,PAYLOAD,2021-11-07 22:00:01,15.69740179,0.0003771,69.9993,332.8641,290.6452,17.6809,0.00079468,0.00095713,0.0,0 STARLINK-3109,1 49143U 21082P   21311.91668981  .00095713  00000-0  79468-3 0  9992,2 49143  69.9993 332.8641 0003771 290.6452  17.6809 15.69740179  3666,6737.776999999999,91.735,362.1830000000001,357.102,0.0
49143.0,STARLINK-3109,PAYLOAD,2021-11-08 14:00:01,15.69845643,0.0004,69.9994,330.9896,295.8983,178.6999,-0.00081886,-0.00097243,0.0,0 STARLINK-3109,1 49143U 21082P   21312.58334491 -.00097243  00000-0 -81886-3 0  9991,2 49143  69.9994 330.9896 0004000 295.8983 178.6999 15.69845643  8801,6737.476,91.729,362.036,356.646,0.0
49143.0,STARLINK-3109,PAYLOAD,2021-11-08 22:00:00,15.69719934,0.0003997,69.9997,330.0527,289.5557,268.254,0.00080449,0.00096833,0.0,0 STARLINK-3109,1 49143U 21082P   21312.91667824  .00096833  00000-0  80449-3 0  9993,2 49143  69.9997 330.0527 0003997 289.5557 268.2540 15.69719934  3667,6737.835,91.736,362.393,357.00699999999995,0.0
49143.0,STARLINK-3109,PAYLOAD,2021-11-09 04:00:00,15.69797889,0.0004038,70.0001,329.3501,290.1448,240.0023,-0.0001801,-0.00021703,0.0,0 STARLINK-3109,1 49143U 21082P   21313.16667824 -.00021703  00000-0 -18010-3 0  9992,2 49143  70.0001 329.3501 0004038 290.1448 240.0023 15.69797889  8892,6737.611999999999,91.732,362.198,356.75699999999995,0.0
49143.0,STARLINK-3109,PAYLOAD,2021-11-09 14:00:01,15.69823165,0.0004157,69.9995,328.1787,294.6363,69.53399999999999,-0.00065986,-0.00078507,0.0,0 STARLINK-3109,1 49143U 21082P   21313.58335648 -.00078507  00000-0 -65986-3 0  9992,2 49143  69.9995 328.1787 0004157 294.6363  69.5340 15.69823165  3686,6737.54,91.73,362.206,356.60400000000016,0.0
49143.0,STARLINK-3109,PAYLOAD,2021-11-09 18:00:00,15.69801643,0.0003944,69.9996,327.7101,292.5331,293.1715,-0.00081911,-0.00097096,0.0,0 STARLINK-3109,1 49143U 21082P   21313.75001157 -.00097096  00000-0 -81911-3 0  9996,2 49143  69.9996 327.7101 0003944 292.5331 293.1715 15.69801643  3674,6737.602,91.731,362.124,356.809,0.0
49143.0,STARLINK-3109,PAYLOAD,2021-11-10 02:00:01,15.6976824,0.0003844,70.0,326.7731,289.1479,19.7612,-6.5551e-06,-9.96e-06,0.0,0 STARLINK-3109,1 49143U 21082P   21314.08335648 -.00000996  00000-0 -65551-5 0  9995,2 49143  70.0000 326.7731 0003844 289.1479  19.7612 15.69768240  3702,6737.696999999999,91.733,362.152,356.972,0.0
49143.0,STARLINK-3109,PAYLOAD,2021-11-10 06:00:00,15.69764057,0.0003965,70.0001,326.3032,292.1872,238.2348,9.6554e-06,9.41e-06,0.0,0 STARLINK-3109,1 49143U 21082P   21314.25001157  .00000941  00000-0  96554-5 0  9994,2 49143  70.0001 326.3032 0003965 292.1872 238.2348 15.69764057  9069,6737.709,91.734,362.246,356.903,0.0
49143.0,STARLINK-3109,PAYLOAD,2021-11-10 22:00:00,15.69683688,0.0003467,69.9999,324.4309,291.8159,44.7984,0.00081176,0.00097563,0.0,0 STARLINK-3109,1 49143U 21082P   21314.91667824  .00097563  00000-0  81176-3 0  9994,2 49143  69.9999 324.4309 0003467 291.8159  44.7984 15.69683688  9177,6737.939,91.738,362.14,357.468,0.0
49143.0,STARLINK-3109,PAYLOAD,2021-11-11 14:00:01,15.69772676,0.0003689,69.9997,322.557,296.1987,206.6289,-0.000167,-0.00020121,0.0,0 STARLINK-3109,1 49143U 21082P   21315.58334491 -.00020121  00000-0 -16700-3 0  9998,2 49143  69.9997 322.5570 0003689 296.1987 206.6289 15.69772676  9271,6737.684,91.733,362.035,357.064,0.0
49143.0,STARLINK-3109,PAYLOAD,2021-11-11 22:00:00,15.6972701,0.0003589,69.9996,321.6201,289.6494,296.3241,0.00068722,0.00082564,0.0,0 STARLINK-3109,1 49143U 21082P   21315.91667824  .00082564  00000-0  68722-3 0  9992,2 49143  69.9996 321.6201 0003589 289.6494 296.3241 15.69727010  3674,6737.815,91.736,362.098,357.26199999999994,0.0
49143.0,STARLINK-3109,PAYLOAD,2021-11-12 06:00:00,15.69802018,0.0003763,69.9997,320.6831,292.8412,16.2753,-0.00055856,-0.00066516,0.0,0 STARLINK-3109,1 49143U 21082P   21316.25001157 -.00066516  00000-0 -55856-3 0  9996,2 49143  69.9997 320.6831 0003763 292.8412  16.2753 15.69802018  9386,6737.6,91.731,362.001,356.93,0.0
